[{"OBJECT_NAME":"KUIPER-00042","OBJECT_ID":"2025-134D","EPOCH":"2026-03-09T21:22:19.187904","MEAN_MOTION":14.79992104,"ECCENTRICITY":0.00070968,"INCLINATION":51.8988,"RA_OF_ASC_NODE":240.7018,"ARG_OF_PERICENTER":281.3124,"MEAN_ANOMALY":78.7041,"EPHEMERIS_TYPE":0,"CLASSIFICATION_TYPE":"U","NORAD_CAT_ID":64503,"ELEMENT_SET_NO":999,"REV_AT_EPOCH":3998,"BSTAR":0.00061477157,"MEAN_MOTION_DOT":4.475e-5,"MEAN_MOTION_DDOT":0},{"OBJECT_NAME":"NOAA 16 DEB","OBJECT_ID":"2000-055TD","EPOCH":"2026-03-09T09:16:58.552320","MEAN_MOTION":14.75110666,"ECCENTRICITY":0.00244253,"INCLINATION":98.7712,"RA_OF_ASC_NODE":227.1584,"ARG_OF_PERICENTER":251.8519,"MEAN_ANOMALY":108.0027,"EPHEMERIS_TYPE":0,"CLASSIFICATION_TYPE":"U","NORAD_CAT_ID":42409,"ELEMENT_SET_NO":999,"REV_AT_EPOCH":52060,"BSTAR":0.004834186,"MEAN_MOTION_DOT":0.0003285,"MEAN_MOTION_DDOT":0}]
